[Satellite]
VERSION=1.1
NAME=GAOFEN 10R
NICKNAME=GAOFEN 10R
TLE1=1 44622U 19066A   19279.51600028  .00002494  00000-0  30611-3 0  9993
TLE2=2 44622  97.7845 224.8150 0007554 244.5478 115.4901 14.83954053   257
STATUS=0
